{
  "type": "FeatureCollection",
  "features": [
    {
      "type": "Feature",
      "properties": {
        "norad_id": 29268,
        "name": "ARIRANG-2 (KOMPSAT-2)",
        "group": "resource",
        "lat": -55.242874853387626,
        "lon": -175.02797538569854,
        "alt_km": 676.3251829354713,
        "timestamp": "2025-12-10T23:33:12.483359+00:00",
        "meta_object_name": "ARIRANG-2 (KOMPSAT-2)",
        "meta_object_id": "2006-031A",
        "meta_epoch": "2025-12-10T14:17:29.552352",
        "meta_mean_motion": 14.64490575,
        "meta_eccentricity": 0.00136267,
        "meta_inclination": 97.8261,
        "meta_ra_of_asc_node": 173.1729,
        "meta_arg_of_pericenter": 316.5225,
        "meta_mean_anomaly": 114.1765,
        "meta_ephemeris_type": 0,
        "meta_classification_type": "U",
        "meta_norad_cat_id": 29268,
        "meta_element_set_no": 999,
        "meta_rev_at_epoch": 3387,
        "meta_bstar": 0.00012119115,
        "meta_mean_motion_dot": 5.98e-06,
        "meta_mean_motion_ddot": 0,
        "tle_line1": "1 29268U 06031A   25344.59548093  .00000598  00000+0  12119-3 0  9996",
        "tle_line2": "2 29268  97.8261 173.1729 0013626 316.5225 114.1765 14.64490575 33875"
      },
      "geometry": {
        "type": "Point",
        "coordinates": [
          -175.02797538569854,
          -55.242874853387626
        ]
      }
    },
    {
      "type": "Feature",
      "properties": {
        "norad_id": 29709,
        "name": "LAPAN-TUBSAT",
        "group": "resource",
        "lat": 73.10867700940733,
        "lon": -176.8303906614852,
        "alt_km": 595.8543535087674,
        "timestamp": "2025-12-10T23:33:12.483369+00:00",
        "meta_object_name": "LAPAN-TUBSAT",
        "meta_object_id": "2007-001A",
        "meta_epoch": "2025-12-10T15:00:08.042112",
        "meta_mean_motion": 14.85666223,
        "meta_eccentricity": 0.00137089,
        "meta_inclination": 98.1258,
        "meta_ra_of_asc_node": 334.7379,
        "meta_arg_of_pericenter": 80.0696,
        "meta_mean_anomaly": 280.2065,
        "meta_ephemeris_type": 0,
        "meta_classification_type": "U",
        "meta_norad_cat_id": 29709,
        "meta_element_set_no": 999,
        "meta_rev_at_epoch": 2315,
        "meta_bstar": 0.00013200578,
        "meta_mean_motion_dot": 1.088e-05,
        "meta_mean_motion_ddot": 0,
        "tle_line1": "1 29709U 07001A   25344.62509308  .00001088  00000+0  13201-3 0  9992",
        "tle_line2": "2 29709  98.1258 334.7379 0013708  80.0696 280.2065 14.85666223 23153"
      },
      "geometry": {
        "type": "Point",
        "coordinates": [
          -176.8303906614852,
          73.10867700940733
        ]
      }
    },
    {
      "type": "Feature",
      "properties": {
        "norad_id": 31113,
        "name": "HAIYANG-1B",
        "group": "resource",
        "lat": -24.24332607747664,
        "lon": -26.884244352699028,
        "alt_km": 790.0022307520294,
        "timestamp": "2025-12-10T23:33:12.483378+00:00",
        "meta_object_name": "HAIYANG-1B",
        "meta_object_id": "2007-010A",
        "meta_epoch": "2025-12-10T11:55:13.880352",
        "meta_mean_motion": 14.3096387,
        "meta_eccentricity": 0.00143582,
        "meta_inclination": 98.3312,
        "meta_ra_of_asc_node": 328.8675,
        "meta_arg_of_pericenter": 44.2073,
        "meta_mean_anomaly": 316.0255,
        "meta_ephemeris_type": 0,
        "meta_classification_type": "U",
        "meta_norad_cat_id": 31113,
        "meta_element_set_no": 999,
        "meta_rev_at_epoch": 97364,
        "meta_bstar": 9.8240054e-05,
        "meta_mean_motion_dot": 2.17e-06,
        "meta_mean_motion_ddot": 0,
        "tle_line1": "1 31113U 07010A   25344.49668843  .00000217  00000+0  98240-4 0  9999",
        "tle_line2": "2 31113  98.3312 328.8675 0014358  44.2073 316.0255 14.30963870973649"
      },
      "geometry": {
        "type": "Point",
        "coordinates": [
          -26.884244352699028,
          -24.24332607747664
        ]
      }
    },
    {
      "type": "Feature",
      "properties": {
        "norad_id": 31598,
        "name": "COSMO-SKYMED 1",
        "group": "resource",
        "lat": -3.0074388999996873,
        "lon": 170.78615833998788,
        "alt_km": 583.4684095631537,
        "timestamp": "2025-12-10T23:33:12.483388+00:00",
        "meta_object_name": "COSMO-SKYMED 1",
        "meta_object_id": "2007-023A",
        "meta_epoch": "2025-12-10T15:32:21.339744",
        "meta_mean_motion": 14.95738016,
        "meta_eccentricity": 0.00010709,
        "meta_inclination": 97.8835,
        "meta_ra_of_asc_node": 170.0331,
        "meta_arg_of_pericenter": 85.9014,
        "meta_mean_anomaly": 274.2329,
        "meta_ephemeris_type": 0,
        "meta_classification_type": "U",
        "meta_norad_cat_id": 31598,
        "meta_element_set_no": 999,
        "meta_rev_at_epoch": 159,
        "meta_bstar": 0.00051393663,
        "meta_mean_motion_dot": 5.669e-05,
        "meta_mean_motion_ddot": 0,
        "tle_line1": "1 31598U 07023A   25344.64746921  .00005669  00000+0  51394-3 0  9995",
        "tle_line2": "2 31598  97.8835 170.0331 0001070  85.9014 274.2329 14.95738016  1596"
      },
      "geometry": {
        "type": "Point",
        "coordinates": [
          170.78615833998788,
          -3.0074388999996873
        ]
      }
    },
    {
      "type": "Feature",
      "properties": {
        "norad_id": 31698,
        "name": "TERRASAR-X",
        "group": "resource",
        "lat": -44.774094019659266,
        "lon": 162.93240805799257,
        "alt_km": 516.0280319413023,
        "timestamp": "2025-12-10T23:33:12.483397+00:00",
        "meta_object_name": "TERRASAR-X",
        "meta_object_id": "2007-026A",
        "meta_epoch": "2025-12-10T13:04:49.433376",
        "meta_mean_motion": 15.19151507,
        "meta_eccentricity": 0.00018619,
        "meta_inclination": 97.446,
        "meta_ra_of_asc_node": 349.9579,
        "meta_arg_of_pericenter": 94.9214,
        "meta_mean_anomaly": 265.2234,
        "meta_ephemeris_type": 0,
        "meta_classification_type": "U",
        "meta_norad_cat_id": 31698,
        "meta_element_set_no": 999,
        "meta_rev_at_epoch": 2458,
        "meta_bstar": 9.1186128e-05,
        "meta_mean_motion_dot": 1.848e-05,
        "meta_mean_motion_ddot": 0,
        "tle_line1": "1 31698U 07026A   25344.54501659  .00001848  00000+0  91186-4 0  9994",
        "tle_line2": "2 31698  97.4460 349.9579 0001861  94.9214 265.2234 15.19151507 24588"
      },
      "geometry": {
        "type": "Point",
        "coordinates": [
          162.93240805799257,
          -44.774094019659266
        ]
      }
    },
    {
      "type": "Feature",
      "properties": {
        "norad_id": 32060,
        "name": "WORLDVIEW-1 (WV-1)",
        "group": "resource",
        "lat": -11.631147760444456,
        "lon": -79.04264216333681,
        "alt_km": 496.33310422582963,
        "timestamp": "2025-12-10T23:33:12.483407+00:00",
        "meta_object_name": "WORLDVIEW-1 (WV-1)",
        "meta_object_id": "2007-041A",
        "meta_epoch": "2025-12-10T06:57:50.790816",
        "meta_mean_motion": 15.24623427,
        "meta_eccentricity": 7.25e-05,
        "meta_inclination": 97.3835,
        "meta_ra_of_asc_node": 101.8056,
        "meta_arg_of_pericenter": 104.6633,
        "meta_mean_anomaly": 255.4685,
        "meta_ephemeris_type": 0,
        "meta_classification_type": "U",
        "meta_norad_cat_id": 32060,
        "meta_element_set_no": 999,
        "meta_rev_at_epoch": 1410,
        "meta_bstar": 0.00052474,
        "meta_mean_motion_dot": 0.00012888,
        "meta_mean_motion_ddot": 0,
        "tle_line1": "1 32060U 07041A   25344.29017119  .00012888  00000+0  52474-3 0  9992",
        "tle_line2": "2 32060  97.3835 101.8056 0000725 104.6633 255.4685 15.24623427 14103"
      },
      "geometry": {
        "type": "Point",
        "coordinates": [
          -79.04264216333681,
          -11.631147760444456
        ]
      }
    },
    {
      "type": "Feature",
      "properties": {
        "norad_id": 32289,
        "name": "YAOGAN-3",
        "group": "resource",
        "lat": -62.794913371983746,
        "lon": 176.08131249833423,
        "alt_km": 606.5517225431458,
        "timestamp": "2025-12-10T23:33:12.483416+00:00",
        "meta_object_name": "YAOGAN-3",
        "meta_object_id": "2007-055A",
        "meta_epoch": "2025-12-10T14:24:10.550304",
        "meta_mean_motion": 14.89840399,
        "meta_eccentricity": 0.00013381,
        "meta_inclination": 97.8364,
        "meta_ra_of_asc_node": 11.2442,
        "meta_arg_of_pericenter": 72.3532,
        "meta_mean_anomaly": 287.7832,
        "meta_ephemeris_type": 0,
        "meta_classification_type": "U",
        "meta_norad_cat_id": 32289,
        "meta_element_set_no": 999,
        "meta_rev_at_epoch": 97777,
        "meta_bstar": 0.0004033879,
        "meta_mean_motion_dot": 3.819e-05,
        "meta_mean_motion_ddot": 0,
        "tle_line1": "1 32289U 07055A   25344.60012211  .00003819  00000+0  40339-3 0  9994",
        "tle_line2": "2 32289  97.8364  11.2442 0001338  72.3532 287.7832 14.89840399977773"
      },
      "geometry": {
        "type": "Point",
        "coordinates": [
          176.08131249833423,
          -62.794913371983746
        ]
      }
    }
  ]
}